STARLINK-31125          
1 58678U 23211M   26068.10153354 -.00000078  00000+0  66634-5 0  9992
2 58678  43.0021  88.6818 0000687 254.9458 105.1318 15.27579104123548
2025-313BD              
1 67299U 25313BD  26068.62968741  .00081010  00000+0  27634-2 0  9995
2 67299  97.3970 145.2850 0007287 333.4514  26.6352 15.30002360 10838
